[{"OBJECT_NAME":"ISS OBJECT XW","OBJECT_ID":"1998-067XW","EPOCH":"2026-04-25T14:00:32.651136","MEAN_MOTION":15.88610498,"ECCENTRICITY":0.001142,"INCLINATION":51.6162,"RA_OF_ASC_NODE":183.4268,"ARG_OF_PERICENTER":354.2702,"MEAN_ANOMALY":5.8171,"EPHEMERIS_TYPE":0,"CLASSIFICATION_TYPE":"U","NORAD_CAT_ID":66910,"ELEMENT_SET_NO":999,"REV_AT_EPOCH":2258,"BSTAR":0.0011658,"MEAN_MOTION_DOT":0.00332519,"MEAN_MOTION_DDOT":5.118e-5},{"OBJECT_NAME":"ISS OBJECT XY","OBJECT_ID":"1998-067XY","EPOCH":"2026-04-25T11:10:41.874816","MEAN_MOTION":15.7405822,"ECCENTRICITY":0.0008012,"INCLINATION":51.6239,"RA_OF_ASC_NODE":188.7217,"ARG_OF_PERICENTER":350.6443,"MEAN_ANOMALY":9.4405,"EPHEMERIS_TYPE":0,"CLASSIFICATION_TYPE":"U","NORAD_CAT_ID":66912,"ELEMENT_SET_NO":999,"REV_AT_EPOCH":2249,"BSTAR":0.00096724,"MEAN_MOTION_DOT":0.00143115,"MEAN_MOTION_DDOT":0},{"OBJECT_NAME":"KNACKSAT-2","OBJECT_ID":"1998-067XZ","EPOCH":"2026-04-25T13:11:25.731168","MEAN_MOTION":15.55573732,"ECCENTRICITY":0.001231,"INCLINATION":51.6296,"RA_OF_ASC_NODE":198.3227,"ARG_OF_PERICENTER":2.8014,"MEAN_ANOMALY":357.3044,"EPHEMERIS_TYPE":0,"CLASSIFICATION_TYPE":"U","NORAD_CAT_ID":67683,"ELEMENT_SET_NO":999,"REV_AT_EPOCH":1207,"BSTAR":0.00055505,"MEAN_MOTION_DOT":0.0003856,"MEAN_MOTION_DDOT":0},{"OBJECT_NAME":"CORAL","OBJECT_ID":"1998-067YA","EPOCH":"2026-04-25T12:14:01.572288","MEAN_MOTION":15.62534469,"ECCENTRICITY":0.0016264,"INCLINATION":51.6271,"RA_OF_ASC_NODE":196.5521,"ARG_OF_PERICENTER":355.5424,"MEAN_ANOMALY":4.5423,"EPHEMERIS_TYPE":0,"CLASSIFICATION_TYPE":"U","NORAD_CAT_ID":67684,"ELEMENT_SET_NO":999,"REV_AT_EPOCH":1209,"BSTAR":0.00099925,"MEAN_MOTION_DOT":0.00091906,"MEAN_MOTION_DDOT":0},{"OBJECT_NAME":"GXIBA-1","OBJECT_ID":"1998-067YB","EPOCH":"2026-04-25T15:44:09.570912","MEAN_MOTION":15.56401322,"ECCENTRICITY":0.0014286,"INCLINATION":51.629,"RA_OF_ASC_NODE":197.531,"ARG_OF_PERICENTER":0.3146,"MEAN_ANOMALY":359.7852,"EPHEMERIS_TYPE":0,"CLASSIFICATION_TYPE":"U","NORAD_CAT_ID":67685,"ELEMENT_SET_NO":999,"REV_AT_EPOCH":1209,"BSTAR":0.0006049,"MEAN_MOTION_DOT":0.00043465,"MEAN_MOTION_DDOT":0},{"OBJECT_NAME":"UITMSAT-2","OBJECT_ID":"1998-067YC","EPOCH":"2026-04-25T14:49:47.431776","MEAN_MOTION":15.57998909,"ECCENTRICITY":0.0011338,"INCLINATION":51.6295,"RA_OF_ASC_NODE":197.2823,"ARG_OF_PERICENTER":341.2932,"MEAN_ANOMALY":18.7642,"EPHEMERIS_TYPE":0,"CLASSIFICATION_TYPE":"U","NORAD_CAT_ID":67686,"ELEMENT_SET_NO":999,"REV_AT_EPOCH":1209,"BSTAR":0.00077198,"MEAN_MOTION_DOT":0.00059073,"MEAN_MOTION_DDOT":0},{"OBJECT_NAME":"HMU-SAT2","OBJECT_ID":"1998-067YD","EPOCH":"2026-04-25T14:26:28.469760","MEAN_MOTION":15.56056842,"ECCENTRICITY":0.0010419,"INCLINATION":51.63,"RA_OF_ASC_NODE":197.9245,"ARG_OF_PERICENTER":342.1591,"MEAN_ANOMALY":17.9033,"EPHEMERIS_TYPE":0,"CLASSIFICATION_TYPE":"U","NORAD_CAT_ID":67687,"ELEMENT_SET_NO":999,"REV_AT_EPOCH":1200,"BSTAR":0.00058613,"MEAN_MOTION_DOT":0.00041465,"MEAN_MOTION_DDOT":0},{"OBJECT_NAME":"LEOPARD","OBJECT_ID":"1998-067YE","EPOCH":"2026-04-25T06:00:05.312736","MEAN_MOTION":15.57236025,"ECCENTRICITY":0.0010851,"INCLINATION":51.6294,"RA_OF_ASC_NODE":199.3265,"ARG_OF_PERICENTER":340.0699,"MEAN_ANOMALY":19.9867,"EPHEMERIS_TYPE":0,"CLASSIFICATION_TYPE":"U","NORAD_CAT_ID":67688,"ELEMENT_SET_NO":999,"REV_AT_EPOCH":1195,"BSTAR":0.00074371,"MEAN_MOTION_DOT":0.00055236,"MEAN_MOTION_DDOT":0},{"OBJECT_NAME":"CREW DRAGON 12","OBJECT_ID":"2026-031A","EPOCH":"2026-04-25T14:51:50.575968","MEAN_MOTION":15.48952974,"ECCENTRICITY":0.0006949,"INCLINATION":51.632,"RA_OF_ASC_NODE":200.2872,"ARG_OF_PERICENTER":349.7097,"MEAN_ANOMALY":10.3748,"EPHEMERIS_TYPE":0,"CLASSIFICATION_TYPE":"U","NORAD_CAT_ID":67796,"ELEMENT_SET_NO":999,"REV_AT_EPOCH":56376,"BSTAR":0.00019457,"MEAN_MOTION_DOT":0.00010271,"MEAN_MOTION_DDOT":0},{"OBJECT_NAME":"PROGRESS-MS 33","OBJECT_ID":"2026-058A","EPOCH":"2026-04-25T14:51:50.575968","MEAN_MOTION":15.48952974,"ECCENTRICITY":0.0006949,"INCLINATION":51.632,"RA_OF_ASC_NODE":200.2872,"ARG_OF_PERICENTER":349.7097,"MEAN_ANOMALY":10.3748,"EPHEMERIS_TYPE":0,"CLASSIFICATION_TYPE":"U","NORAD_CAT_ID":68319,"ELEMENT_SET_NO":999,"REV_AT_EPOCH":527,"BSTAR":0.00019457,"MEAN_MOTION_DOT":0.00010271,"MEAN_MOTION_DDOT":0},{"OBJECT_NAME":"CYGNUS NG-24","OBJECT_ID":"2026-079A","EPOCH":"2026-04-25T04:01:30.445536","MEAN_MOTION":15.48944607,"ECCENTRICITY":0.00069208,"INCLINATION":51.632,"RA_OF_ASC_NODE":202.5215,"ARG_OF_PERICENTER":348.0684,"MEAN_ANOMALY":12.0139,"EPHEMERIS_TYPE":0,"CLASSIFICATION_TYPE":"U","NORAD_CAT_ID":68689,"ELEMENT_SET_NO":999,"REV_AT_EPOCH":216,"BSTAR":0.00020209254,"MEAN_MOTION_DOT":0.00010683,"MEAN_MOTION_DDOT":0}]
